FLOCK 3P-47             
1 42032U 17008CN  17269.79673347  .00005732  00000-0  24564-3 0  9999
2 42032  97.4855 330.9047 0007426 206.0535 154.0328 15.23140896 33825
FLOCK 3P-44             
1 42033U 17008CP  17269.59319203  .00002372  00000-0  10340-3 0  9990
2 42033  97.4862 330.7221 0007365 209.8193 150.2625 15.23158083 32542
FLOCK 3P-64             
1 42034U 17008CQ  17269.59238601  .00002056  00000-0  90091-4 0  9994
2 42034  97.4859 330.7119 0007209 208.9429 151.1408 15.23134150 33969
FLOCK 3P-63             
1 42035U 17008CR  17269.78836176  .00002184  00000-0  95426-4 0  9996
2 42035  97.4857 330.9065 0007229 208.2023 151.8823 15.23166630 31969
FLOCK 3P-62             
1 42036U 17008CS  17269.57961050  .00004250  00000-0  18253-3 0  9992
2 42036  97.4855 330.7300 0007283 210.8728 149.2081 15.23213777 33132
FLOCK 3P-38             
1 42037U 17008CT  17269.58950170  .00001926  00000-0  84542-4 0  9997
2 42037  97.4858 330.7130 0006905 209.2263 150.8588 15.23154470 33913
FLOCK 3P-39             
1 42038U 17008CU  17269.58788320  .00005879  00000-0  25192-3 0  9990
2 42038  97.4849 330.7060 0007130 209.4272 150.6564 15.23130332 33866
FLOCK 3P-15             
1 42039U 17008CV  17269.59181310  .00004241  00000-0  18261-3 0  9999
2 42039  97.4853 330.7099 0007051 208.8286 151.2562 15.23131986 33146
FLOCK 3P-13             
1 42040U 17008CW  17269.58637126  .00004659  00000-0  20044-3 0  9996
2 42040  97.4857 330.7216 0006992 209.7975 150.2864 15.23105369 33130
FLOCK 3P-55             
1 42041U 17008CX  17269.82717517  .00003837  00000-0  16534-3 0  9993
2 42041  97.4855 331.0090 0006638 213.2676 146.8144 15.23167231 34014
FLOCK 3P-56             
1 42042U 17008CY  17269.81984073  .00004212  00000-0  17967-3 0  9995
2 42042  97.4852 331.0091 0006663 212.6008 147.4818 15.23457875 33800
FLOCK 3P-81             
1 42043U 17008CZ  17269.74378394  .00002250  00000-0  98301-4 0  9993
2 42043  97.4882 330.8957 0008053 191.6335 168.4717 15.23132052 33174
FLOCK 3P-87             
1 42044U 17008DA  17269.42405798  .00003900  00000-0  16822-3 0  9998
2 42044  97.4876 330.5458 0008304 189.9390 170.1683 15.23112731 33276
FLOCK 3P-29             
1 42045U 17008DB  17269.35988289  .00003896  00000-0  16796-3 0  9996
2 42045  97.4858 330.4230 0008061 186.6560 173.4571 15.23136497 33117
FLOCK 3P-82             
1 42046U 17008DC  17269.29576955  .00003691  00000-0  15927-3 0  9991
2 42046  97.4876 330.4165 0008348 191.4289 168.6760 15.23136980 33152
FLOCK 3P-78             
1 42047U 17008DD  17269.16029382  .00003714  00000-0  16032-3 0  9999
2 42047  97.4878 330.2930 0008199 190.5219 169.5848 15.23119858 33062
FLOCK 3P-74             
1 42048U 17008DE  17269.23469254  .00004051  00000-0  17469-3 0  9994
2 42048  97.4881 330.3543 0008456 191.5013 168.6032 15.23100074 33073
FLOCK 3P-31             
1 42049U 17008DF  17269.30132538  .00005243  00000-0  22537-3 0  9991
2 42049  97.4857 330.3505 0008123 188.0572 172.0535 15.23069151 32545
FLOCK 3P-83             
1 42050U 17008DG  17269.63094285  .00005631  00000-0  24183-3 0  9995
2 42050  97.4875 330.7348 0008392 190.8133 169.2925 15.23066812 33866
FLOCK 3P-72             
1 42051U 17008DH  17269.61123768  .00002058  00000-0  90224-4 0  9993
2 42051  97.4886 330.7742 0007957 189.1652 170.9441 15.23122451 31457
LEMUR-2-REDFERN-GOES    
1 42059U 98067LA  17269.51698723  .00024869  00000-0  29105-3 0  9995
2 42059  51.6375 247.3534 0006547 329.7954  30.2661 15.61380626 31828
LEMUR-2-TRUTNA          
1 42067U 98067LC  17269.46670202  .00042140  00000-0  39783-3 0  9995
2 42067  51.6370 244.7565 0005273 343.5765  16.5059 15.66578746 31685
LEMUR-2-AUSTINTACIOUS   
1 42068U 98067LD  17269.40555577  .00030285  00000-0  33586-3 0  9999
2 42068  51.6382 247.3595 0005955 328.2090  31.8544 15.62663408 31741
LEMUR-2-TRUTNAHD        
1 42069U 98067LE  17269.55917191  .00028613  00000-0  32734-3 0  9996
2 42069  51.6385 246.8997 0005681 330.3687  29.6985 15.61893633 31813
HAVELSAT                
1 42700U 98067LH  17269.80303264  .00022836  00000-0  29488-3 0  9999
2 42700  51.6391 249.2661 0006285 358.7390   1.3586 15.58848310 20778
SOMP 2                  
1 42701U 98067LJ  17269.81684514  .00020174  00000-0  26462-3 0  9993
2 42701  51.6384 249.3619 0006119 358.7531   1.3445 15.58518073 20761
COLUMBIA                
1 42702U 98067LK  17269.80108348  .00058311  00000-0  62930-3 0  9993
2 42702  51.6376 247.7507 0005967   8.6054 351.5042 15.63057084 20716
SGSAT                   
1 42703U 98067LL  17269.85386868  .00039927  00000-0  46168-3 0  9991
2 42703  51.6369 248.0990 0001621   6.5535 353.5480 15.61460499 20706
CXBN-2                  
1 42704U 98067LM  17269.82399131  .00021666  00000-0  28345-3 0  9994
2 42704  51.6391 249.4086 0001303 346.0347  14.0610 15.58552263 20692
ICECUBE                 
1 42705U 98067LN  17269.79957989  .00027295  00000-0  34287-3 0  9998
2 42705  51.6405 249.2557 0001229 335.7223  24.3712 15.59486619 20751
PHOENIX                 
1 42706U 98067LP  17269.81085582  .00021150  00000-0  27562-3 0  9995
2 42706  51.6385 249.3237 0001671  16.7209 343.3838 15.58672117 20680
X-CUBESAT               
1 42707U 98067LQ  17269.81021157  .00023529  00000-0  30461-3 0  9998
2 42707  51.6377 249.3136 0001751  18.6330 341.4726 15.58776948 20676
QBEE50-LTU-OC           
1 42708U 98067LR  17269.81409520  .00022685  00000-0  29496-3 0  9991
2 42708  51.6376 249.3398 0001714  17.4242 342.6809 15.58684482 20636
ALTAIR PATHFINDER       
1 42711U 98067LS  17269.81665372  .00014693  00000-0  20404-3 0  9994
2 42711  51.6388 250.1047 0003161 290.5580  69.5073 15.57258770 20332
SHARC                   
1 42712U 98067LT  17269.81882810  .00008461  00000-0  12172-3 0  9992
2 42712  51.6396 250.1258 0001473 309.8247  50.2615 15.56966541 20570
ZA-AEROSAT              
1 42713U 98067LU  17269.84614968  .00016627  00000-0  22427-3 0  9990
2 42713  51.6387 249.5557 0001041 311.9093  48.1810 15.57934107 20341
LINK                    
1 42714U 98067LV  17269.81547450  .00030212  00000-0  38198-3 0  9997
2 42714  51.6378 249.3454 0001128 343.3746  16.7210 15.59258576 20454
CSUNSAT 1               
1 42715U 98067LW  17269.85147783  .00018917  00000-0  25307-3 0  9993
2 42715  51.6388 249.5867 0002893 279.8474  80.2192 15.58050594 20349
UPSAT                   
1 42716U 98067LX  17269.80030869  .00026467  00000-0  33588-3 0  9994
2 42716  51.6389 249.2499 0004849   7.6381 352.4685 15.59225572 20472
SPACECUBE               
1 42717U 98067LY  17269.82519607  .00022510  00000-0  29423-3 0  9997
2 42717  51.6387 249.4148 0004733   5.6881 354.4164 15.58541922 19717
HOOPOE                  
1 42718U 98067LZ  17269.81265872  .00024175  00000-0  31139-3 0  9995
2 42718  51.6381 249.3322 0004703   5.7179 354.3866 15.58886272 19711
CHALLENGER              
1 42721U 98067MA  17269.48496675  .00032712  00000-0  40510-3 0  9998
2 42721  51.6375 250.8863 0006774 340.7084  19.3652 15.59742694 19364
NJUST-1                 
1 42722U 98067MB  17269.80694297  .00018870  00000-0  25563-3 0  9995
2 42722  51.6386 250.0400 0006951 337.8635  22.2056 15.57698179 19404
UNSW-ECO                
1 42723U 98067MC  17269.45713032  .00023922  00000-0  31087-3 0  9998
2 42723  51.6386 251.4578 0006777 339.1901  20.8815 15.58645336 19330
DUTHSAT                 
1 42724U 98067MD  17269.49649471  .00031531  00000-0  39433-3 0  9996
2 42724  51.6386 250.9681 0006054 346.1339  13.9487 15.59508030 19261
LILACSAT-1              
1 42725U 98067ME  17269.54912305  .00021868  00000-0  29255-3 0  9995
2 42725  51.6387 251.3212 0006078 342.6278  17.4506 15.57933629 19262
NSIGHT-1                
1 42726U 98067MF  17269.33263112  .00010942  00000-0  15744-3 0  9997
2 42726  51.6393 252.8766 0006247 339.5742  20.4999 15.56600903 19231
SNUSAT-1                
1 42727U 98067MG  17269.86730863  .00019722  00000-0  26387-3 0  9998
2 42727  51.6377 249.6870 0006281 299.2706  60.7658 15.58002811 19284
QBITO                   
1 42728U 98067MH  17269.52900917  .00022333  00000-0  29398-3 0  9998
2 42728  51.6398 251.1927 0003865   0.4982 359.6014 15.58362355 19077
AALTO-2                 
1 42729U 98067MJ  17269.46477721  .00021184  00000-0  27938-3 0  9995
2 42729  51.6389 251.5088 0003820   0.3001 359.7993 15.58349158 19075
SUSAT                   
1 42730U 98067MK  17269.53516030  .00021796  00000-0  28914-3 0  9996
2 42730  51.6385 251.2268 0003809 357.5422   2.5551 15.58172920 19075
I-INSPIRE II            
1 42731U 98067ML  17269.51547209  .00025222  00000-0  32469-3 0  9995
2 42731  51.6373 251.0862 0005269 284.5429  75.4979 15.58872493 19120
POLYITAN-2-SAU          
1 42732U 98067MM  17269.46102557  .00022227  00000-0  29156-3 0  9994
2 42732  51.6380 251.4730 0005540 282.5635  77.4738 15.58451829 19116
SNUSAT-1B               
1 42733U 98067MN  17269.40699916  .00019982  00000-0  26529-3 0  9994
2 42733  51.6381 251.8636 0005563 284.6348  75.4027 15.58204338 19105
EXALTA-1                
1 42734U 98067MP  17269.58075167  .00026495  00000-0  34182-3 0  9991
2 42734  51.6373 250.7744 0007421 310.9831  49.0519 15.58770717 19089
AOXIANG-1               
1 42735U 98067MQ  17269.54690983  .00019695  00000-0  26579-3 0  9992
2 42735  51.6383 251.3022 0007492 332.6599  27.3998 15.57764443 20492
BEEAGLESAT              
1 42736U 98067MR  17269.86341760  .00019069  00000-0  25561-3 0  9999
2 42736  51.6381 249.6667 0007309 333.7456  26.3165 15.57970387 19238
ATLANTIS                
1 42737U 98067MS  17269.42840281  .00048296  00000-0  54956-3 0  9998
2 42737  51.6365 250.5025 0006514 340.7795  19.2953 15.61770291 19076
LEMUR-2-ANGELA          
1 42752U 17019B   17269.45999234  .00002267  00000-0  94948-4 0  9993
2 42752  51.6403 275.1317 0010980 348.5728  11.5001 15.27845036 16772
